start=new Date('2022-09-22T00:00:00.000Z').valueOf();
sats=[{"MEAN_MOTION_DDOT":"0.0000000000000","TLE_LINE1":"1 53622U 22104AL  22264.91667824  .00012561  00000-0  93776-4 0  9997","REV_AT_EPOCH":"130","ECCENTRICITY":"0.00010030","APOAPSIS":"350.436","FILE":"3579752","NORAD_CAT_ID":"53622","MEAN_MOTION":"15.73199714","CENTER_NAME":"EARTH","MEAN_MOTION_DOT":"0.00012561","RA_OF_ASC_NODE":"165.2978","EPHEMERIS_TYPE":"0","REF_FRAME":"TEME","LAUNCH_DATE":"2022-08-28","EPOCH":"2022-09-21T22:00:00.999936","PERIOD":"91.533","COUNTRY_CODE":"US","INCLINATION":"53.2144","MEAN_ELEMENT_THEORY":"SGP4","SEMIMAJOR_AXIS":"6727.896","MEAN_ANOMALY":"68.6025","PERIAPSIS":"349.086","ARG_OF_PERICENTER":"105.5598","BSTAR":"0.00009377600000","GP_ID":"213194186","OBJECT_ID":"2022-104AL","OBJECT_NAME":"STARLINK-4568","DECAY_DATE":null,"CLASSIFICATION_TYPE":"U","TIME_SYSTEM":"UTC","SITE":"AFETR","ELEMENT_SET_NO":"999","TLE_LINE2":"2 53622  53.2144 165.2978 0001003 105.5598  68.6025 15.73199714  1302","OBJECT_TYPE":"PAYLOAD","RCS_SIZE":"LARGE"},{"DECAY_DATE":null,"OBJECT_NAME":"STARLINK-4573","CLASSIFICATION_TYPE":"U","ARG_OF_PERICENTER":"124.5008","BSTAR":"0.00022043000000","GP_ID":"213194248","OBJECT_ID":"2022-104AM","PERIAPSIS":"348.821","RCS_SIZE":"LARGE","OBJECT_TYPE":"PAYLOAD","TLE_LINE2":"2 53623  53.2147 165.3037 0001431 124.5008  47.7165 15.73191630  1307","TIME_SYSTEM":"UTC","SITE":"AFETR","ELEMENT_SET_NO":"999","APOAPSIS":"350.747","MEAN_MOTION_DDOT":"0.0000000000000","TLE_LINE1":"1 53623U 22104AM  22264.91667824  .00030417  00000-0  22043-3 0  9996","REV_AT_EPOCH":"130","ECCENTRICITY":"0.00014310","COUNTRY_CODE":"US","INCLINATION":"53.2147","SEMIMAJOR_AXIS":"6727.919","MEAN_ANOMALY":"47.7165","MEAN_ELEMENT_THEORY":"SGP4","LAUNCH_DATE":"2022-08-28","EPOCH":"2022-09-21T22:00:00.999936","PERIOD":"91.534","EPHEMERIS_TYPE":"0","REF_FRAME":"TEME","FILE":"3579752","MEAN_MOTION":"15.73191630","NORAD_CAT_ID":"53623","CENTER_NAME":"EARTH","MEAN_MOTION_DOT":"0.00030417","RA_OF_ASC_NODE":"165.3037"},{"REV_AT_EPOCH":"130","TLE_LINE1":"1 53624U 22104AN  22264.91667824  .00010433  00000-0  78621-4 0  9997","ECCENTRICITY":"0.00014270","MEAN_MOTION_DDOT":"0.0000000000000","APOAPSIS":"350.684","MEAN_MOTION_DOT":"0.00010433","CENTER_NAME":"EARTH","RA_OF_ASC_NODE":"165.3004","FILE":"3579752","NORAD_CAT_ID":"53624","MEAN_MOTION":"15.73212685","REF_FRAME":"TEME","EPHEMERIS_TYPE":"0","PERIOD":"91.532","EPOCH":"2022-09-21T22:00:00.999936","LAUNCH_DATE":"2022-08-28","MEAN_ANOMALY":"63.5717","SEMIMAJOR_AXIS":"6727.859","MEAN_ELEMENT_THEORY":"SGP4","COUNTRY_CODE":"US","INCLINATION":"53.2150","PERIAPSIS":"348.764","GP_ID":"213193300","OBJECT_ID":"2022-104AN","ARG_OF_PERICENTER":"111.1233","BSTAR":"0.00007862100000","DECAY_DATE":null,"OBJECT_NAME":"STARLINK-4596","CLASSIFICATION_TYPE":"U","TIME_SYSTEM":"UTC","SITE":"AFETR","ELEMENT_SET_NO":"999","TLE_LINE2":"2 53624  53.2150 165.3004 0001427 111.1233  63.5717 15.73212685  1306","OBJECT_TYPE":"PAYLOAD","RCS_SIZE":"LARGE"},{"EPHEMERIS_TYPE":"0","REF_FRAME":"TEME","NORAD_CAT_ID":"53625","FILE":"3579752","MEAN_MOTION":"15.73252345","RA_OF_ASC_NODE":"165.3023","CENTER_NAME":"EARTH","MEAN_MOTION_DOT":"0.00031729","INCLINATION":"53.2149","COUNTRY_CODE":"US","SEMIMAJOR_AXIS":"6727.746","MEAN_ELEMENT_THEORY":"SGP4","MEAN_ANOMALY":"42.3411","LAUNCH_DATE":"2022-08-28","PERIOD":"91.530","EPOCH":"2022-09-21T22:00:00.999936","APOAPSIS":"350.346","MEAN_MOTION_DDOT":"0.0000000000000","ECCENTRICITY":"0.00010920","REV_AT_EPOCH":"130","TLE_LINE1":"1 53625U 22104AP  22264.91667824  .00031729  00000-0  22912-3 0  9990","TLE_LINE2":"2 53625  53.2149 165.3023 0001092 130.9481  42.3411 15.73252345  1301","ELEMENT_SET_NO":"999","SITE":"AFETR","TIME_SYSTEM":"UTC","RCS_SIZE":"LARGE","OBJECT_TYPE":"PAYLOAD","PERIAPSIS":"348.876","DECAY_DATE":null,"OBJECT_NAME":"STARLINK-4603","CLASSIFICATION_TYPE":"U","BSTAR":"0.00022912000000","ARG_OF_PERICENTER":"130.9481","OBJECT_ID":"2022-104AP","GP_ID":"213193460"},{"PERIAPSIS":"348.977","GP_ID":"213194408","OBJECT_ID":"2022-104AQ","ARG_OF_PERICENTER":"115.9792","BSTAR":"0.00025179000000","OBJECT_NAME":"STARLINK-4554","DECAY_DATE":null,"CLASSIFICATION_TYPE":"U","SITE":"AFETR","TIME_SYSTEM":"UTC","ELEMENT_SET_NO":"999","TLE_LINE2":"2 53626  53.2150 165.2977 0001068 115.9792  60.4344 15.73222734  1307","OBJECT_TYPE":"PAYLOAD","RCS_SIZE":"LARGE","TLE_LINE1":"1 53626U 22104AQ  22264.91667824  .00034898  00000-0  25179-3 0  9999","REV_AT_EPOCH":"130","ECCENTRICITY":"0.00010680","MEAN_MOTION_DDOT":"0.0000000000000","APOAPSIS":"350.414","CENTER_NAME":"EARTH","MEAN_MOTION_DOT":"0.00034898","RA_OF_ASC_NODE":"165.2977","MEAN_MOTION":"15.73222734","FILE":"3579752","NORAD_CAT_ID":"53626","REF_FRAME":"TEME","EPHEMERIS_TYPE":"0","EPOCH":"2022-09-21T22:00:00.999936","PERIOD":"91.532","LAUNCH_DATE":"2022-08-28","MEAN_ELEMENT_THEORY":"SGP4","SEMIMAJOR_AXIS":"6727.830","MEAN_ANOMALY":"60.4344","COUNTRY_CODE":"US","INCLINATION":"53.2150"},{"MEAN_MOTION_DDOT":"0.0000000000000","TLE_LINE1":"1 53627U 22104AR  22264.91667824 -.00081142  00000-0 -57682-3 0  9990","REV_AT_EPOCH":"130","ECCENTRICITY":"0.00015140","APOAPSIS":"350.495","LAUNCH_DATE":"2022-08-28","EPOCH":"2022-09-21T22:00:00.999936","PERIOD":"91.527","COUNTRY_CODE":"US","INCLINATION":"53.2149","MEAN_ANOMALY":"59.1168","SEMIMAJOR_AXIS":"6727.611","MEAN_ELEMENT_THEORY":"SGP4","FILE":"3579752","MEAN_MOTION":"15.73299516","NORAD_CAT_ID":"53627","MEAN_MOTION_DOT":"-0.00081142","CENTER_NAME":"EARTH","RA_OF_ASC_NODE":"165.2987","EPHEMERIS_TYPE":"0","REF_FRAME":"TEME","ARG_OF_PERICENTER":"116.0487","BSTAR":"-0.00057682000000","GP_ID":"213194027","OBJECT_ID":"2022-104AR","DECAY_DATE":null,"OBJECT_NAME":"STARLINK-4595","CLASSIFICATION_TYPE":"U","PERIAPSIS":"348.458","OBJECT_TYPE":"PAYLOAD","RCS_SIZE":"LARGE","TIME_SYSTEM":"UTC","SITE":"AFETR","ELEMENT_SET_NO":"999","TLE_LINE2":"2 53627  53.2149 165.2987 0001514 116.0487  59.1168 15.73299516  1307"},{"OBJECT_ID":"2022-104AS","GP_ID":"213193717","BSTAR":"0.00023890000000","ARG_OF_PERICENTER":"125.1942","OBJECT_NAME":"STARLINK-4600","DECAY_DATE":null,"CLASSIFICATION_TYPE":"U","PERIAPSIS":"349.057","OBJECT_TYPE":"PAYLOAD","RCS_SIZE":"LARGE","ELEMENT_SET_NO":"999","TIME_SYSTEM":"UTC","SITE":"AFETR","TLE_LINE2":"2 53628  53.2151 165.2952 0001076 125.1942  52.4511 15.73192768  1302","ECCENTRICITY":"0.00010760","TLE_LINE1":"1 53628U 22104AS  22264.91667824  .00033029  00000-0  23890-3 0  9994","REV_AT_EPOCH":"130","MEAN_MOTION_DDOT":"0.0000000000000","APOAPSIS":"350.505","PERIOD":"91.534","EPOCH":"2022-09-21T22:00:00.999936","LAUNCH_DATE":"2022-08-28","MEAN_ELEMENT_THEORY":"SGP4","SEMIMAJOR_AXIS":"6727.916","MEAN_ANOMALY":"52.4511","INCLINATION":"53.2151","COUNTRY_CODE":"US","RA_OF_ASC_NODE":"165.2952","MEAN_MOTION_DOT":"0.00033029","CENTER_NAME":"EARTH","NORAD_CAT_ID":"53628","FILE":"3579752","MEAN_MOTION":"15.73192768","REF_FRAME":"TEME","EPHEMERIS_TYPE":"0"},{"REF_FRAME":"TEME","EPHEMERIS_TYPE":"0","RA_OF_ASC_NODE":"165.2977","CENTER_NAME":"EARTH","MEAN_MOTION_DOT":"0.00030256","MEAN_MOTION":"15.73183089","FILE":"3579752","NORAD_CAT_ID":"53629","MEAN_ELEMENT_THEORY":"SGP4","SEMIMAJOR_AXIS":"6727.943","MEAN_ANOMALY":"68.6997","INCLINATION":"53.2149","COUNTRY_CODE":"US","EPOCH":"2022-09-21T22:00:00.999936","PERIOD":"91.534","LAUNCH_DATE":"2022-08-28","APOAPSIS":"350.754","ECCENTRICITY":"0.00014060","REV_AT_EPOCH":"130","TLE_LINE1":"1 53629U 22104AT  22264.91667824  .00030256  00000-0  21937-3 0  9994","MEAN_MOTION_DDOT":"0.0000000000000","TLE_LINE2":"2 53629  53.2149 165.2977 0001406 107.0902  68.6997 15.73183089  1302","ELEMENT_SET_NO":"999","SITE":"AFETR","TIME_SYSTEM":"UTC","RCS_SIZE":"LARGE","OBJECT_TYPE":"PAYLOAD","PERIAPSIS":"348.862","DECAY_DATE":null,"CLASSIFICATION_TYPE":"U","OBJECT_NAME":"STARLINK-4602","OBJECT_ID":"2022-104AT","GP_ID":"213193876","BSTAR":"0.00021937000000","ARG_OF_PERICENTER":"107.0902"},{"APOAPSIS":"350.406","MEAN_MOTION_DDOT":"0.0000000000000","TLE_LINE1":"1 53630U 22104AU  22264.91667824 -.00076207  00000-0 -54185-3 0  9995","REV_AT_EPOCH":"130","ECCENTRICITY":"0.00012570","EPHEMERIS_TYPE":"0","REF_FRAME":"TEME","NORAD_CAT_ID":"53630","FILE":"3579752","MEAN_MOTION":"15.73270236","MEAN_MOTION_DOT":"-0.00076207","CENTER_NAME":"EARTH","RA_OF_ASC_NODE":"165.2930","COUNTRY_CODE":"US","INCLINATION":"53.2149","SEMIMAJOR_AXIS":"6727.695","MEAN_ELEMENT_THEORY":"SGP4","MEAN_ANOMALY":"59.4470","LAUNCH_DATE":"2022-08-28","PERIOD":"91.529","EPOCH":"2022-09-21T22:00:00.999936","PERIAPSIS":"348.714","DECAY_DATE":null,"CLASSIFICATION_TYPE":"U","OBJECT_NAME":"STARLINK-4598","ARG_OF_PERICENTER":"118.8177","BSTAR":"-0.00054185000000","GP_ID":"213194187","OBJECT_ID":"2022-104AU","TLE_LINE2":"2 53630  53.2149 165.2930 0001257 118.8177  59.4470 15.73270236  1306","SITE":"AFETR","TIME_SYSTEM":"UTC","ELEMENT_SET_NO":"999","RCS_SIZE":"LARGE","OBJECT_TYPE":"PAYLOAD"},{"DECAY_DATE":null,"CLASSIFICATION_TYPE":"U","OBJECT_NAME":"STARLINK-4599","BSTAR":"0.00000841350000","ARG_OF_PERICENTER":"121.9073","OBJECT_ID":"2022-104AV","GP_ID":"213194249","PERIAPSIS":"348.810","RCS_SIZE":"LARGE","OBJECT_TYPE":"PAYLOAD","TLE_LINE2":"2 53631  53.2147 165.2946 0001235 121.9073  55.0760 15.73241775  1308","ELEMENT_SET_NO":"999","TIME_SYSTEM":"UTC","SITE":"AFETR","APOAPSIS":"350.472","MEAN_MOTION_DDOT":"0.0000000000000","ECCENTRICITY":"0.00012350","TLE_LINE1":"1 53631U 22104AV  22264.91667824  .00000563  00000-0  84135-5 0  9996","REV_AT_EPOCH":"130","INCLINATION":"53.2147","COUNTRY_CODE":"US","MEAN_ANOMALY":"55.0760","SEMIMAJOR_AXIS":"6727.776","MEAN_ELEMENT_THEORY":"SGP4","LAUNCH_DATE":"2022-08-28","EPOCH":"2022-09-21T22:00:00.999936","PERIOD":"91.531","EPHEMERIS_TYPE":"0","REF_FRAME":"TEME","MEAN_MOTION":"15.73241775","FILE":"3579752","NORAD_CAT_ID":"53631","RA_OF_ASC_NODE":"165.2946","CENTER_NAME":"EARTH","MEAN_MOTION_DOT":"0.00000563"}];
